FLOCK 4BE-7             
1 60481U 24149P   26188.74121345  .00016481  00000+0  39831-3 0  9997
2 60481  97.3752 271.9967 0003775 169.1066 191.0263 15.41228317105413
TOMORROW-S2             
1 60485U 24149T   26188.72949804  .00005209  00000+0  16555-3 0  9991
2 60485  97.3812 269.6492 0003177 168.1484 191.9833 15.33066234105231
FLOCK 4BE-36            
1 60486U 24149U   26188.02638873  .00013008  00000+0  29345-3 0  9993
2 60486  97.3735 272.7003 0004140 175.2705 184.8583 15.43353640105419
FLOCK 4BE-25            
1 60487U 24149V   26188.76270532  .00009831  00000+0  25335-3 0  9993
2 60487  97.3790 272.0594 0003165 158.7620 201.3758 15.39400433105403
FLOCK 4BE-31            
1 60488U 24149W   26188.75107676  .00014426  00000+0  30829-3 0  9991
2 60488  97.3790 274.3529 0003285 170.1346 189.9968 15.44940045105557
FLOCK 4BE-20            
1 60489U 24149X   26188.67125766  .00009877  00000+0  26063-3 0  9992
2 60489  97.3688 270.7948 0004339 173.8543 186.2757 15.38668067105368
FLOCK 4BE-23            
1 60490U 24149Y   26188.66697311  .00009462  00000+0  25339-3 0  9998
2 60490  97.3770 271.1770 0003912 177.3071 182.8195 15.38226346105347
FLOCK 4BE-17            
1 60492U 24149AA  26188.75255766  .00010850  00000+0  27024-3 0  9990
2 60492  97.3763 272.2915 0003871 165.6669 194.4688 15.40413939105425
NUSAT-50 (NANCY ROMAN)  
1 60493U 24149AB  26188.76952346  .00006491  00000+0  22449-3 0  9992
2 60493  97.3778 269.8859 0004737 119.2952 240.8763 15.30230523105271
FLOCK 4BE-22            
1 60494U 24149AC  26188.78042733  .00012231  00000+0  29050-3 0  9999
2 60494  97.3725 272.5445 0004193 175.4124 184.7162 15.41823095105472
FLOCK 4BE-34            
1 60495U 24149AD  26188.73292672  .00011385  00000+0  27087-3 0  9991
2 60495  97.3776 273.3318 0004112 182.7905 177.3320 15.41790138105493
TYCHE                   
1 60496U 24149AE  26188.72654549  .00002962  00000+0  11828-3 0  9993
2 60496  97.3746 266.2678 0002744 177.5417 182.5835 15.25931151105033
FLOCK 4BE-32            
1 60497U 24149AF  26188.75241929  .00012258  00000+0  28090-3 0  9999
2 60497  97.3711 272.9111 0004325 180.8811 179.2430 15.42898146105505
NUSAT-48 (HENRIETTA LE*)
1 60498U 24149AG  26187.18887495  .00009400  00000+0  32448-3 0  9997
2 60498  97.3910 268.5926 0003967 187.0344 173.0842 15.30170218105041
NUSAT-49 (KLARA DAN VO*)
1 60500U 24149AJ  26188.73515149  .00005637  00000+0  19495-3 0  9992
2 60500  97.3772 269.8843 0001709 186.1553 173.9667 15.30298285105271
FLOCK 4BE-11            
1 60501U 24149AK  26188.80107242  .00012447  00000+0  27773-3 0  9997
2 60501  97.3691 273.2099 0004404 179.6010 180.5242 15.43691986105535
YAM-7                   
1 60504U 24149AN  26188.76318238  .00005169  00000+0  16923-3 0  9992
2 60504  97.3773 268.9320 0002892 193.0887 167.0280 15.32112216105206
FLOCK 4BE-24            
1 60505U 24149AP  26188.72095949  .00014674  00000+0  32481-3 0  9998
2 60505  97.3707 273.3935 0004417 193.1566 166.9568 15.43889466105539
LUR-1                   
1 60506U 24149AQ  26188.77662223  .00004740  00000+0  16391-3 0  9994
2 60506  97.3730 267.4584 0003227 210.5247 149.5806 15.30383292105127
TANAGER-1               
1 60507U 24149AR  26188.11232678  .00000341  00000+0  93231-5 0  9993
2 60507  97.2319 282.2964 0002809 175.8028 184.3245 15.44037810106113
EAGLEEYE                
1 60508U 24149AS  26188.78248602  .00100289  00000+0  66060-3 0  9991
2 60508  97.3703 283.3204 0004960 198.7418 161.3665 15.75342587106179
FLOCK 4BE-29            
1 60509U 24149AT  26188.78274051  .00032095  00000+0  68032-3 0  9999
2 60509  97.3802 274.9755 0002936 195.4249 164.6910 15.45016388105592
TRANSPORTER-11 OBJECT AU
1 60510U 24149AU  26188.71400095  .00010680  00000+0  26251-3 0  9996
2 60510  97.3720 272.6057 0003522 192.4761 167.6398 15.40823789105477
FLOCK 4BE-2             
1 60511U 24149AV  26188.79542432  .00046723  00000+0  69026-3 0  9991
2 60511  97.3821 276.7131 0004930 193.2138 166.8987 15.55192203105706
FLOCK 4BE-13            
1 60512U 24149AW  26188.72493399  .00010367  00000+0  24135-3 0  9999
2 60512  97.3713 273.3570 0004505 178.2656 181.8608 15.42467833105531
FLOCK 4BE-27            
1 60513U 24149AX  26188.79916793  .00006628  00000+0  19867-3 0  9996
2 60513  97.3818 270.6643 0003170 209.5219 150.5846 15.34825523105306
FLOCK 4BE-9             
1 60514U 24149AY  26188.73821531  .00011145  00000+0  26835-3 0  9999
2 60514  97.3784 273.2170 0002980 192.5638 167.5535 15.41438050105482
